ONEWEB-0572             
1 55151U 23004M   26193.88201909  .00000049  00000+0  93704-4 0  9993
2 55151  87.9136   0.7523 0002071  92.4139 267.7230 13.17651466170867
ONEWEB-0573             
1 55152U 23004N   26193.91296927  .00000012  00000+0 -31669-5 0  9996
2 55152  87.9186 330.3518 0002757  99.2195 260.9249 13.18687745173089
ONEWEB-0588             
1 55153U 23004P   26193.90624202 -.00000107  00000+0 -30368-3 0  9996
2 55153  87.9195 330.3512 0002050  93.0725 267.0642 13.18686720173088
ONEWEB-0598             
1 55154U 23004Q   26193.94857800  .00000424  00000+0  11603-2 0  9993
2 55154  87.8883  15.9380 0002472 100.3141 259.8265 13.11418049169279
ONEWEB-0599             
1 55155U 23004R   26193.91913466  .00000033  00000+0  52549-4 0  9994
2 55155  87.9141   0.7443 0001848  99.6348 260.4993 13.17650433170870
ONEWEB-0614             
1 55156U 23004S   26193.94348638  .00000281  00000+0  75815-3 0  9996
2 55156  87.8879  15.9476 0001800  82.1208 278.0124 13.11418475169211
ONEWEB-0616             
1 55157U 23004T   26193.88538506  .00000042  00000+0  74773-4 0  9993
2 55157  87.9142   0.7547 0001660 121.9050 238.2243 13.17650706171087
ONEWEB-0617             
1 55158U 23004U   26193.93160608 -.00000201  00000+0 -60370-3 0  9990
2 55158  87.8887  15.9427 0001939  77.5343 282.6002 13.11419618169237
ONEWEB-0618             
1 55159U 23004V   26193.91479050  .00002260  00000+0  12470-3 0  9996
2 55159  86.9104 167.1880 0011818 183.5251 176.5908 15.13361758186157
ONEWEB-0619             
1 55160U 23004W   26193.91744743  .00000055  00000+0  10739-3 0  9998
2 55160  87.9151   0.7316 0001436  86.8749 273.2547 13.17650765170989
ONEWEB-0620             
1 55161U 23004X   26193.92651944 -.00000360  00000+0 -10515-2 0  9992
2 55161  87.8874  15.9497 0002105  89.6085 270.5285 13.11418476169204
ONEWEB-0621             
1 55162U 23004Y   26193.95366545  .00000522  00000+0  14358-2 0  9993
2 55162  87.8892  15.9366 0001781  83.1348 276.9983 13.11417011169186
ONEWEB-0622             
1 55163U 23004Z   26193.95875368  .00000553  00000+0  15243-2 0  9990
2 55163  87.8888  15.9382 0002251  73.6591 286.4784 13.11416118169178
ONEWEB-0623             
1 55164U 23004AA  26193.91238620  .00000122  00000+0  28185-3 0  9993
2 55164  87.9135   0.7598 0001722  64.9953 295.1358 13.17648283170973
ONEWEB-0624             
1 55165U 23004AB  26193.87732248  .00000414  00000+0  11067-2 0  9998
2 55165  87.8950 345.4727 0001678  83.9262 276.2058 13.12929060171445
ONEWEB-0625             
1 55166U 23004AC  26193.90225920  .00000044  00000+0  79613-4 0  9999
2 55166  87.9138   0.7578 0001689  93.8337 266.2988 13.17650315170961
ONEWEB-0626             
1 55167U 23004AD  26193.89215254  .00000026  00000+0  32582-4 0  9991
2 55167  87.9140   0.7599 0002137  99.2252 260.9121 13.17650536170968
ONEWEB-0627             
1 55168U 23004AE  26193.88033065 -.00000034  00000+0 -12036-3 0  9991
2 55168  87.9140   0.7622 0001887  80.3955 279.7390 13.17647913170969
ONEWEB-0628             
1 55169U 23004AF  26193.86824738  .00000310  00000+0  82728-3 0  9995
2 55169  87.8964 345.5469 0001598  74.0934 286.0371 13.12443234171403
ONEWEB-0629             
1 55170U 23004AG  26193.93179779  .00000062  00000+0  12536-3 0  9997
2 55170  87.9137   0.7481 0001500  89.3039 270.8264 13.17650422170977
ONEWEB-0631             
1 55171U 23004AH  26193.89949893  .00000003  00000+0 -25600-4 0  9998
2 55171  87.9189 330.3237 0002313  90.9627 269.1771 13.18686407173060
ONEWEB-0709             
1 55172U 23004AJ  26193.91635123 -.00000566  00000+0 -16329-2 0  9991
2 55172  87.8881  15.9548 0002689 102.3229 257.8200 13.11415795169241
ONEWEB-0710             
1 55173U 23004AK  26193.87020249  .00000020  00000+0  19417-4 0  9990
2 55173  87.9142   0.7558 0001919  87.1011 273.0340 13.17648058170962
ONEWEB-0711             
1 55174U 23004AL  26193.88754153  .00000469  00000+0  12868-2 0  9998
2 55174  87.8881  15.9484 0001970  68.9097 291.2241 13.11415449169203
ONEWEB-0713             
1 55175U 23004AM  26193.90618395 -.00000255  00000+0 -75400-3 0  9996
2 55175  87.8882  15.9467 0001890  78.0765 282.0575 13.11414742169192
ONEWEB-0715             
1 55176U 23004AN  26193.90110026 -.00000039  00000+0 -14574-3 0  9990
2 55176  87.8888  15.9492 0002516  91.6194 268.5222 13.11414179169237
ONEWEB-0716             
1 55177U 23004AP  26193.93938743  .00000024  00000+0  29513-4 0  9990
2 55177  87.9142   0.7444 0001777  99.3518 260.7814 13.17648594170974
ONEWEB-0717             
1 55178U 23004AQ  26193.92251389  .00000139  00000+0  32565-3 0  9991
2 55178  87.9149   0.7377 0002087  73.3346 286.8014 13.17650357171021
ONEWEB-0719             
1 55179U 23004AR  26193.93263357  .00000053  00000+0  10430-3 0  9993
2 55179  87.9153   0.7161 0001663  94.6833 265.4489 13.17651188170979
ONEWEB-0530             
1 55796U 23029A   26194.15026089  .00000080  00000+0  16592-3 0  9994
2 55796  87.9176 269.2931 0001875  86.3610 273.7738 13.20772864164579
